KUIPER-00027            
1 63740U 25088S   25244.58335648 -.01838173  00000+0 -12901+0 0  9996
2 63740  51.8873 213.7154 0002011 258.6850 178.8832 15.08289540  5144
KUIPER-00028            
1 63741U 25088T   25244.58335648 -.00018034  00000+0 -99181-3 0  9991
2 63741  51.8844 212.7666 0001912 242.0752 263.9626 15.13101905  5283
KUIPER-00029            
1 63742U 25088U   25244.58335648 -.00583137  00000+0 -29452-1 0  9995
2 63742  51.8823 212.3979 0003779 203.1432  79.1598 15.18933091  4008
KUIPER-00030            
1 63743U 25088V   25244.42557052  .00001967  00000+0  28705-3 0  9990
2 63743  51.9007 227.4555 0013945 171.1172 189.0039 14.79923401 19605
KUIPER-00031            
1 63744U 25088W   25244.58335648 -.00990511  00000+0 -76801-1 0  9995
2 63744  51.8824 214.4998 0003263 147.2606 186.8841 15.03687748  5551
KUIPER-00032            
1 63745U 25088X   25244.38816429  .00023022  00000+0  80017-3 0  9993
2 63745  51.8720 213.9257 0004798 150.8581 209.2671 15.29624926 20505
KUIPER-00033            
1 63746U 25088Y   25244.00253667  .00003893  00000+0  53908-3 0  9995
2 63746  51.8983 245.3872 0002716 282.4767  77.5891 14.79956903 19511
KUIPER-00034            
1 63747U 25088Z   25244.58335648 -.00524769  00000+0 -22061-1 0  9995
2 63747  51.8748 211.0628 0000982  89.9757 175.4668 15.25274949  4476
